{"type": "FeatureCollection", "features": [ {"type": "Feature", "properties": {"norad_id": 66656, "name": "2025-274G", "group": "last-30-days", "lat": -38.9974594247142, "lon": 102.16065742582757, "alt_km": 588.350488351769, "timestamp": "2025-12-27T12:55:13.193869+00:00", "meta": {"OBJECT_NAME": "2025-274G", "OBJECT_ID": "2025-274G", "EPOCH": "2025-12-27T05:30:13.305024", "MEAN_MOTION": 14.92361292, "ECCENTRICITY": 0.00130702, "INCLINATION": 97.7403, "RA_OF_ASC_NODE": 288.1799, "ARG_OF_PERICENTER": 203.5179, "MEAN_ANOMALY": 156.5444, "EPHEMERIS_TYPE": 0, "CLASSIFICATION_TYPE": "U", "NORAD_CAT_ID": 66656, "ELEMENT_SET_NO": 999, "REV_AT_EPOCH": 456, "BSTAR": 0.00035724861, "MEAN_MOTION_DOT": 3.604e-05, "MEAN_MOTION_DDOT": 0}, "tle": {"line1": "1 66656U 25274G   25361.22932066  .00003604  00000+0  35725-3 0  9993", "line2": "2 66656  97.7403 288.1799 0013070 203.5179 156.5444 14.92361292  4566"}}, "geometry": {"type": "Point", "coordinates": [102.16065742582757, -38.9974594247142]}}, {"type": "Feature", "properties": {"norad_id": 66657, "name": "SPIRONE", "group": "last-30-days", "lat": -58.37229385991334, "lon": 95.73273130953471, "alt_km": 589.9173213385466, "timestamp": "2025-12-27T12:55:13.193880+00:00", "meta": {"OBJECT_NAME": "SPIRONE", "OBJECT_ID": "2025-274H", "EPOCH": "2025-12-27T05:24:56.816640", "MEAN_MOTION": 14.92540543, "ECCENTRICITY": 0.00110006, "INCLINATION": 97.7401, "RA_OF_ASC_NODE": 288.1839, "ARG_OF_PERICENTER": 220.5482, "MEAN_ANOMALY": 139.4919, "EPHEMERIS_TYPE": 0, "CLASSIFICATION_TYPE": "U", "NORAD_CAT_ID": 66657, "ELEMENT_SET_NO": 999, "REV_AT_EPOCH": 456, "BSTAR": 0.00038856136, "MEAN_MOTION_DOT": 3.941e-05, "MEAN_MOTION_DDOT": 0}, "tle": {"line1": "1 66657U 25274H   25361.22565760  .00003941  00000+0  38856-3 0  9999", "line2": "2 66657  97.7401 288.1839 0011000 220.5482 139.4919 14.92540543  4562"}}, "geometry": {"type": "Point", "coordinates": [95.73273130953471, -58.37229385991334]}}, {"type": "Feature", "properties": {"norad_id": 66658, "name": "2025-274J", "group": "last-30-days", "lat": -76.1637639767204, "lon": 74.98032489142638, "alt_km": 590.2847064462749, "timestamp": "2025-12-27T12:55:13.193892+00:00", "meta": {"OBJECT_NAME": "2025-274J", "OBJECT_ID": "2025-274J", "EPOCH": "2025-12-27T06:56:21.757344", "MEAN_MOTION": 14.92728348, "ECCENTRICITY": 0.00114575, "INCLINATION": 97.74, "RA_OF_ASC_NODE": 288.2548, "ARG_OF_PERICENTER": 223.447, "MEAN_ANOMALY": 136.5847, "EPHEMERIS_TYPE": 0, "CLASSIFICATION_TYPE": "U", "NORAD_CAT_ID": 66658, "ELEMENT_SET_NO": 999, "REV_AT_EPOCH": 457, "BSTAR": 0.0005757341, "MEAN_MOTION_DOT": 5.897e-05, "MEAN_MOTION_DDOT": 0}, "tle": {"line1": "1 66658U 25274J   25361.28914071  .00005897  00000+0  57573-3 0  9998", "line2": "2 66658  97.7400 288.2548 0011457 223.4470 136.5847 14.92728348  4575"}}, "geometry": {"type": "Point", "coordinates": [74.98032489142638, -76.1637639767204]}}, {"type": "Feature", "properties": {"norad_id": 66659, "name": "JACK K", "group": "last-30-days", "lat": -78.2914574682488, "lon": -30.473026728551805, "alt_km": 591.2184596050838, "timestamp": "2025-12-27T12:55:13.193902+00:00", "meta": {"OBJECT_NAME": "JACK K", "OBJECT_ID": "2025-274K", "EPOCH": "2025-12-26T17:58:48.840096", "MEAN_MOTION": 14.92886476, "ECCENTRICITY": 0.00122459, "INCLINATION": 97.7403, "RA_OF_ASC_NODE": 287.7329, "ARG_OF_PERICENTER": 227.6944, "MEAN_ANOMALY": 132.3238, "EPHEMERIS_TYPE": 0, "CLASSIFICATION_TYPE": "U", "NORAD_CAT_ID": 66659, "ELEMENT_SET_NO": 999, "REV_AT_EPOCH": 449, "BSTAR": 0.00034058623, "MEAN_MOTION_DOT": 3.478e-05, "MEAN_MOTION_DDOT": 0}, "tle": {"line1": "1 66659U 25274K   25360.74917639  .00003478  00000+0  34059-3 0  9999", "line2": "2 66659  97.7403 287.7329 0012245 227.6944 132.3238 14.92886476  4494"}}, "geometry": {"type": "Point", "coordinates": [-30.473026728551805, -78.2914574682488]}}, {"type": "Feature", "properties": {"norad_id": 66660, "name": "K-HERO", "group": "last-30-days", "lat": -63.459280406617005, "lon": -55.67983660963713, "alt_km": 592.5456687253136, "timestamp": "2025-12-27T12:55:13.193912+00:00", "meta": {"OBJECT_NAME": "K-HERO", "OBJECT_ID": "2025-274L", "EPOCH": "2025-12-26T17:54:27.478368", "MEAN_MOTION": 14.93036689, "ECCENTRICITY": 0.00128683, "INCLINATION": 97.7404, "RA_OF_ASC_NODE": 287.7384, "ARG_OF_PERICENTER": 228.4819, "MEAN_ANOMALY": 131.5297, "EPHEMERIS_TYPE": 0, "CLASSIFICATION_TYPE": "U", "NORAD_CAT_ID": 66660, "ELEMENT_SET_NO": 999, "REV_AT_EPOCH": 449, "BSTAR": 0.00032159571, "MEAN_MOTION_DOT": 3.294e-05, "MEAN_MOTION_DDOT": 0}, "tle": {"line1": "1 66660U 25274L   25360.74615137  .00003294  00000+0  32160-3 0  9996", "line2": "2 66660  97.7404 287.7384 0012868 228.4819 131.5297 14.93036689  4499"}}, "geometry": {"type": "Point", "coordinates": [-55.67983660963713, -63.459280406617005]}}, {"type": "Feature", "properties": {"norad_id": 66661, "name": "SNUGLITE-III", "group": "last-30-days", "lat": -48.20025859661253, "lon": -62.72672486030827, "alt_km": 593.9479027758762, "timestamp": "2025-12-27T12:55:13.193922+00:00", "meta": {"OBJECT_NAME": "SNUGLITE-III", "OBJECT_ID": "2025-274M", "EPOCH": "2025-12-27T06:42:19.470528", "MEAN_MOTION": 14.93172145, "ECCENTRICITY": 0.00135072, "INCLINATION": 97.7402, "RA_OF_ASC_NODE": 288.2685, "ARG_OF_PERICENTER": 227.9814, "MEAN_ANOMALY": 132.0256, "EPHEMERIS_TYPE": 0, "CLASSIFICATION_TYPE": "U", "NORAD_CAT_ID": 66661, "ELEMENT_SET_NO": 999, "REV_AT_EPOCH": 457, "BSTAR": 0.00032042171, "MEAN_MOTION_DOT": 3.294e-05, "MEAN_MOTION_DDOT": 0}, "tle": {"line1": "1 66661U 25274M   25361.27939202  .00003294  00000+0  32042-3 0  9997", "line2": "2 66661  97.7402 288.2685 0013507 227.9814 132.0256 14.93172145  4576"}}, "geometry": {"type": "Point", "coordinates": [-62.72672486030827, -48.20025859661253]}}, {"type": "Feature", "properties": {"norad_id": 66662, "name": "2025-274N", "group": "last-30-days", "lat": -42.032738914320774, "lon": -64.43085663964266, "alt_km": 594.6129428752502, "timestamp": "2025-12-27T12:55:13.193934+00:00", "meta": {"OBJECT_NAME": "2025-274N", "OBJECT_ID": "2025-274N", "EPOCH": "2025-12-27T06:40:39.154944", "MEAN_MOTION": 14.93229166, "ECCENTRICITY": 0.0013938, "INCLINATION": 97.7402, "RA_OF_ASC_NODE": 288.2706, "ARG_OF_PERICENTER": 227.7585, "MEAN_ANOMALY": 132.2453, "EPHEMERIS_TYPE": 0, "CLASSIFICATION_TYPE": "U", "NORAD_CAT_ID": 66662, "ELEMENT_SET_NO": 999, "REV_AT_EPOCH": 457, "BSTAR": 0.00033678009, "MEAN_MOTION_DOT": 3.47e-05, "MEAN_MOTION_DDOT": 0}, "tle": {"line1": "1 66662U 25274N   25361.27823096  .00003470  00000+0  33678-3 0  9993", "line2": "2 66662  97.7402 288.2706 0013938 227.7585 132.2453 14.93229166  4579"}}, "geometry": {"type": "Point", "coordinates": [-64.43085663964266, -42.032738914320774]}}, {"type": "Feature", "properties": {"norad_id": 66664, "name": "SOYUZ-MS 28", "group": "last-30-days", "lat": -18.19493971982408, "lon": -95.72069800313508, "alt_km": 420.48753550328456, "timestamp": "2025-12-27T12:55:13.193944+00:00", "meta": {"OBJECT_NAME": "SOYUZ-MS 28", "OBJECT_ID": "2025-275A", "EPOCH": "2025-12-27T04:18:31.505184", "MEAN_MOTION": 15.49864323, "ECCENTRICITY": 0.00032283, "INCLINATION": 51.6319, "RA_OF_ASC_NODE": 70.9638, "ARG_OF_PERICENTER": 308.9173, "MEAN_ANOMALY": 51.1527, "EPHEMERIS_TYPE": 0, "CLASSIFICATION_TYPE": "U", "NORAD_CAT_ID": 66664, "ELEMENT_SET_NO": 999, "REV_AT_EPOCH": 128, "BSTAR": 0.0002516974, "MEAN_MOTION_DOT": 0.00013867, "MEAN_MOTION_DDOT": 0}, "tle": {"line1": "1 66664U 25275A   25361.17953131  .00013867  00000+0  25170-3 0  9998", "line2": "2 66664  51.6319  70.9638 0003228 308.9173  51.1527 15.49864323  1281"}}, "geometry": {"type": "Point", "coordinates": [-95.72069800313508, -18.19493971982408]}}, {"type": "Feature", "properties": {"norad_id": 66666, "name": "FORMOSAT-8A", "group": "last-30-days", "lat": -21.64072722253312, "lon": -109.79983138717411, "alt_km": 568.4599473718172, "timestamp": "2025-12-27T12:55:13.193957+00:00", "meta": {"OBJECT_NAME": "FORMOSAT-8A", "OBJECT_ID": "2025-276A", "EPOCH": "2025-12-27T05:37:17.945472", "MEAN_MOTION": 15.00372503, "ECCENTRICITY": 0.0004147, "INCLINATION": 97.6576, "RA_OF_ASC_NODE": 72.9607, "ARG_OF_PERICENTER": 180.3597, "MEAN_ANOMALY": 179.7625, "EPHEMERIS_TYPE": 0, "CLASSIFICATION_TYPE": "U", "NORAD_CAT_ID": 66666, "ELEMENT_SET_NO": 999, "REV_AT_EPOCH": 426, "BSTAR": 0.00036676818, "MEAN_MOTION_DOT": 4.548e-05, "MEAN_MOTION_DDOT": 0}, "tle": {"line1": "1 66666U 25276A   25361.23423548  .00004548  00000+0  36677-3 0  9992", "line2": "2 66666  97.6576  72.9607 0004147 180.3597 179.7625 15.00372503  4267"}}, "geometry": {"type": "Point", "coordinates": [-109.79983138717411, -21.64072722253312]}}, {"type": "Feature", "properties": {"norad_id": 66667, "name": "PELICAN-5", "group": "last-30-days", "lat": 1.424292745181571, "lon": -106.75728135530768, "alt_km": 514.2117554642491, "timestamp": "2025-12-27T12:55:13.193968+00:00", "meta": {"OBJECT_NAME": "PELICAN-5", "OBJECT_ID": "2025-276B", "EPOCH": "2025-12-27T05:48:24.508512", "MEAN_MOTION": 15.17636375, "ECCENTRICITY": 0.00024996, "INCLINATION": 97.4406, "RA_OF_ASC_NODE": 72.7653, "ARG_OF_PERICENTER": 195.3911, "MEAN_ANOMALY": 164.7248, "EPHEMERIS_TYPE": 0, "CLASSIFICATION_TYPE": "U", "NORAD_CAT_ID": 66667, "ELEMENT_SET_NO": 999, "REV_AT_EPOCH": 432, "BSTAR": 0.00044191383, "MEAN_MOTION_DOT": 8.83e-05, "MEAN_MOTION_DDOT": 0}, "tle": {"line1": "1 66667U 25276B   25361.24195033  .00008830  00000+0  44191-3 0  9997", "line2": "2 66667  97.4406  72.7653 0002499 195.3911 164.7248 15.17636375  4321"}}, "geometry": {"type": "Point", "coordinates": [-106.75728135530768, 1.424292745181571]}}]}